0 COSMOS 1825
1 17566U 87024A   13281.15534144  .00002627  00000-0  16051-3 0  8327
2 17566 082.5143 179.7544 0005167 181.0998 346.2726 15.09880501449691
0 COSMOS 1825
1 17566U 87024A   13282.20408855  .00003691  00000-0  22620-3 0  8335
2 17566 082.5140 178.7299 0005148 176.0904 288.2205 15.09889860449856
0 COSMOS 1825
1 17566U 87024A   13283.20818119  .00003630  00000-0  22234-3 0  8349
2 17566 082.5140 177.7489 0005228 173.7040 345.0141 15.09897640450005
0 COSMOS 1825
1 17566U 87024A   13286.19157258  .00003100  00000-0  18957-3 0  8361
2 17566 082.5145 174.8347 0005363 166.8605 358.3091 15.09915326450453
0 COSMOS 1825
1 17566U 87024A   13287.24820898  .00003637  00000-0  22263-3 0  8376
2 17566 082.5144 173.8025 0005389 164.2346 340.8705 15.09919973450614
0 COSMOS 1825
1 17566U 87024A   13288.30379755  .00004765  00000-0  29217-3 0  8385
2 17566 082.5141 172.7714 0005417 161.5724 317.7996 15.09931516450775
0 COSMOS 1825
1 17566U 87024A   13289.36633582  .00004496  00000-0  27548-3 0  8390
2 17566 082.5141 171.7335 0005417 158.1683 333.2657 15.09938662450933
0 COSMOS 1825
1 17566U 87024A   13291.16211193  .00003986  00000-0  24398-3 0  8406
2 17566 082.5133 169.9796 0005436 153.1454 013.6058 15.09951888451206
0 COSMOS 1825
1 17566U 87024A   13292.34644477  .00003650  00000-0  22323-3 0  8417
2 17566 082.5131 168.8224 0005475 149.9370 330.5925 15.09959095451382
0 COSMOS 1825
1 17566U 87024A   13293.79050462  .00003819  00000-0  23354-3 0  8425
2 17566 082.5124 167.4118 0005493 147.1215 258.1714 15.09967750451602
0 COSMOS 1825
1 17566U 87024A   13295.13797568  .00004117  00000-0  25189-3 0  8431
2 17566 082.5121 166.0953 0005500 143.3225 022.0638 15.09975294451806
